OBJECT_NAME,OBJECT_ID,EPOCH,MEAN_MOTION,ECCENTRICITY,INCLINATION,RA_OF_ASC_NODE,ARG_OF_PERICENTER,MEAN_ANOMALY,EPHEMERIS_TYPE,CLASSIFICATION_TYPE,NORAD_CAT_ID,ELEMENT_SET_NO,REV_AT_EPOCH,BSTAR,MEAN_MOTION_DOT,MEAN_MOTION_DDOT
LEMUR-2-FINNIAN,2025-276DX,2026-07-16T03:43:44.272992,15.00622308,.00070976,97.5343,267.2469,355.3535,4.7622,0,U,66782,999,2434,.11978851E-3,.1457E-4,0
LEMUR-2-STARLIGHT,2025-276DY,2026-07-16T11:17:28.406688,14.99363985,.00147474,97.5235,267.1086,43.5337,316.7047,0,U,66783,999,3458,.28915729E-3,.3487E-4,0
LEMUR-2-TARTIFLETTE,2025-276DZ,2026-07-16T03:14:40.829856,14.99346228,.00139321,97.5234,266.7927,52.8232,307.4262,0,U,66784,999,3453,.28086E-3,.3383E-4,0
LEMUR-2-VUKASIN,2025-276EA,2026-07-16T10:31:01.981632,15.00552455,.0002856,97.5221,267.4465,51.1957,308.9522,0,U,66785,999,3453,.18767568E-3,.231E-4,0
LEMUR-2-HOTSPUR-TOM,2025-276EB,2026-07-16T04:42:48.994560,14.99246626,.00137457,97.5216,266.8257,44.1727,316.0592,0,U,66786,999,3447,.23118768E-3,.2767E-4,0
LEMUR-2-MYRA,2025-276EC,2026-07-16T11:16:55.038144,15.00597189,.00186746,97.5220,267.3966,50.4551,309.8320,0,U,66787,999,3460,.25273894E-3,.3145E-4,0
LEMUR-2 FIKRETDENGIZ,2026-004A,2026-07-16T07:27:09.911232,14.88520966,.0010117,97.8026,195.4261,52.7320,307.4818,0,U,67363,999,2761,.17464205E-3,.157E-4,0
TWILIGHT-1 OBJECT B,2026-004B,2026-07-16T11:35:07.694880,14.87795828,.00096532,97.8076,195.5957,42.1314,318.0643,0,U,67364,999,2764,.10103108E-3,.869E-5,0
LEMUR-2-MARIO-SOUSA,2026-004C,2026-07-16T11:48:17.935200,14.88733882,.00097696,97.7999,195.5997,53.4742,306.7373,0,U,67365,999,2765,.24506175E-3,.2237E-4,0
LEMUR-2-SONNENBLUME,2026-004E,2026-07-16T11:52:45.124608,14.88456861,.00093245,97.8001,195.5747,54.5578,305.6508,0,U,67367,999,2765,.15036642E-3,.1342E-4,0
LEMUR-2-WOBLER,2026-004F,2026-07-16T11:37:01.220160,14.88703298,.00094011,97.8050,195.7164,46.4263,313.7733,0,U,67368,999,2765,.23038711E-3,.2098E-4,0
LEMUR-2-GRAM-E-SUE,2026-004H,2026-07-16T11:25:49.523232,14.88592640,.00085207,97.7987,195.5729,57.5431,302.6609,0,U,67370,999,2765,.13602101E-3,.1213E-4,0
LEMUR-2-KATIE,2026-004AA,2026-07-16T11:58:28.956000,14.90258182,.00033885,97.8044,196.1512,31.1729,328.9689,0,U,67387,999,2767,.23436757E-3,.2219E-4,0
LEMUR-2-HCS-BAZUS,2026-004AB,2026-07-16T11:56:06.134208,14.90266361,.00028669,97.8038,196.1274,31.0784,329.0603,0,U,67388,999,2767,.16049349E-3,.1502E-4,0
