LEMUR-2-FINNIAN         
1 66782U 25276DX  26197.15537353  .00001457  00000+0  11979-3 0  9994
2 66782  97.5343 267.2469 0007097 355.3535   4.7622 15.00622308 24341
LEMUR-2-STARLIGHT       
1 66783U 25276DY  26197.47046767  .00003487  00000+0  28916-3 0  9998
2 66783  97.5235 267.1086 0014747  43.5337 316.7047 14.99363985 34586
LEMUR-2-TARTIFLETTE     
1 66784U 25276DZ  26197.13519479  .00003383  00000+0  28086-3 0  9990
2 66784  97.5234 266.7927 0013932  52.8232 307.4262 14.99346228 34539
LEMUR-2-VUKASIN         
1 66785U 25276EA  26197.43821738  .00002310  00000+0  18768-3 0  9993
2 66785  97.5221 267.4465 0002856  51.1957 308.9522 15.00552455 34539
LEMUR-2-HOTSPUR-TOM     
1 66786U 25276EB  26197.19640040  .00002767  00000+0  23119-3 0  9994
2 66786  97.5216 266.8257 0013745  44.1727 316.0592 14.99246626 34479
LEMUR-2-MYRA            
1 66787U 25276EC  26197.47008146  .00003145  00000+0  25274-3 0  9996
2 66787  97.5220 267.3966 0018674  50.4551 309.8320 15.00597189 34609
LEMUR-2 FIKRETDENGIZ    
1 67363U 26004A   26197.31053138  .00001570  00000+0  17464-3 0  9993
2 67363  97.8026 195.4261 0010117  52.7320 307.4818 14.88520966 27612
TWILIGHT-1 OBJECT B     
1 67364U 26004B   26197.48272795  .00000869  00000+0  10103-3 0  9997
2 67364  97.8076 195.5957 0009653  42.1314 318.0643 14.87795828 27647
LEMUR-2-MARIO-SOUSA     
1 67365U 26004C   26197.49187425  .00002237  00000+0  24506-3 0  9997
2 67365  97.7999 195.5997 0009769  53.4742 306.7373 14.88733882 27651
LEMUR-2-SONNENBLUME     
1 67367U 26004E   26197.49496672  .00001342  00000+0  15037-3 0  9991
2 67367  97.8001 195.5747 0009324  54.5578 305.6508 14.88456861 27654
LEMUR-2-WOBLER          
1 67368U 26004F   26197.48404190  .00002098  00000+0  23039-3 0  9995
2 67368  97.8050 195.7164 0009401  46.4263 313.7733 14.88703298 27650
LEMUR-2-GRAM-E-SUE      
1 67370U 26004H   26197.47626763  .00001213  00000+0  13602-3 0  9992
2 67370  97.7987 195.5729 0008520  57.5431 302.6609 14.88592640 27653
LEMUR-2-KATIE           
1 67387U 26004AA  26197.49894625  .00002219  00000+0  23437-3 0  9990
2 67387  97.8044 196.1512 0003388  31.1729 328.9689 14.90258182 27672
LEMUR-2-HCS-BAZUS       
1 67388U 26004AB  26197.49729322  .00001502  00000+0  16049-3 0  9997
2 67388  97.8038 196.1274 0002866  31.0784 329.0603 14.90266361 27677
